COSMOS 2251 DEB         
1 36050U 93036AXM 25331.96971308  .00009198  00000+0  66930-3 0  9995
2 36050  74.0309 224.0938 0089229 307.1595  52.1466 15.00707640668135
COSMOS 2251 DEB         
1 36058U 93036AXV 25316.10275146  .00005333  00000+0  11395-2 0  9990
2 36058  74.0221  91.8350 0046425 232.3147 127.3804 14.58395321656642
COSMOS 2251 DEB         
1 36060U 93036AXX 25333.18310093  .00001241  00000+0  38625-3 0  9991
2 36060  74.0293 259.7042 0014784 358.4513   1.6595 14.41948818848143
COSMOS 2251 DEB         
1 36061U 93036AXY 25332.44170820  .00000784  00000+0  28971-3 0  9996
2 36061  74.0243  25.9304 0037086 118.4423 242.0473 14.33673526648996
COSMOS 2251 DEB         
1 36073U 93036AYL 25332.29598589  .00000601  00000+0  21988-3 0  9997
2 36073  74.0324 349.0375 0023323  61.5964 298.7535 14.34923918700006
COSMOS 2251 DEB         
1 36074U 93036AYM 25328.12965607  .00002611  00000+0  77026-3 0  9991
2 36074  73.9951  15.1719 0041640 112.8285 247.7278 14.43570153856416
