{
  "type": "FeatureCollection",
  "features": [
    {
      "type": "Feature",
      "properties": {
        "OBJECT_NAME": "COSMOS 2251 DEB",
        "OBJECT_ID": "1993-036AXM",
        "EPOCH": "2025-11-27T23:16:23.210112",
        "MEAN_MOTION": 15.0070764,
        "ECCENTRICITY": 0.0089229,
        "INCLINATION": 74.0309,
        "RA_OF_ASC_NODE": 224.0938,
        "ARG_OF_PERICENTER": 307.1595,
        "MEAN_ANOMALY": 52.1466,
        "EPHEMERIS_TYPE": 0,
        "CLASSIFICATION_TYPE": "U",
        "NORAD_CAT_ID": 36050,
        "ELEMENT_SET_NO": 999,
        "REV_AT_EPOCH": 66813,
        "BSTAR": 0.0006693,
        "MEAN_MOTION_DOT": 9.198e-05,
        "MEAN_MOTION_DDOT": 0,
        "norad_id": 36050,
        "name": "COSMOS 2251 DEB",
        "group": "cosmos-2251-debris",
        "longitude_deg": NaN,
        "latitude_deg": NaN,
        "alt_km": NaN,
        "orbit_class": "HEO",
        "timestamp": "2025-11-30T04:57:05.907360+00:00"
      },
      "geometry": {
        "type": "Point",
        "coordinates": [
          NaN,
          NaN
        ]
      }
    },
    {
      "type": "Feature",
      "properties": {
        "OBJECT_NAME": "COSMOS 2251 DEB",
        "OBJECT_ID": "1993-036AXV",
        "EPOCH": "2025-11-12T02:27:57.726144",
        "MEAN_MOTION": 14.58395321,
        "ECCENTRICITY": 0.00464251,
        "INCLINATION": 74.0221,
        "RA_OF_ASC_NODE": 91.835,
        "ARG_OF_PERICENTER": 232.3147,
        "MEAN_ANOMALY": 127.3804,
        "EPHEMERIS_TYPE": 0,
        "CLASSIFICATION_TYPE": "U",
        "NORAD_CAT_ID": 36058,
        "ELEMENT_SET_NO": 999,
        "REV_AT_EPOCH": 65664,
        "BSTAR": 0.0011395428,
        "MEAN_MOTION_DOT": 5.333e-05,
        "MEAN_MOTION_DDOT": 0,
        "norad_id": 36058,
        "name": "COSMOS 2251 DEB",
        "group": "cosmos-2251-debris",
        "longitude_deg": NaN,
        "latitude_deg": NaN,
        "alt_km": NaN,
        "orbit_class": "HEO",
        "timestamp": "2025-11-30T04:57:05.907373+00:00"
      },
      "geometry": {
        "type": "Point",
        "coordinates": [
          NaN,
          NaN
        ]
      }
    },
    {
      "type": "Feature",
      "properties": {
        "OBJECT_NAME": "COSMOS 2251 DEB",
        "OBJECT_ID": "1993-036AXX",
        "EPOCH": "2025-11-29T04:23:39.920352",
        "MEAN_MOTION": 14.41948818,
        "ECCENTRICITY": 0.00147836,
        "INCLINATION": 74.0293,
        "RA_OF_ASC_NODE": 259.7042,
        "ARG_OF_PERICENTER": 358.4513,
        "MEAN_ANOMALY": 1.6595,
        "EPHEMERIS_TYPE": 0,
        "CLASSIFICATION_TYPE": "U",
        "NORAD_CAT_ID": 36060,
        "ELEMENT_SET_NO": 999,
        "REV_AT_EPOCH": 84814,
        "BSTAR": 0.00038625395,
        "MEAN_MOTION_DOT": 1.241e-05,
        "MEAN_MOTION_DDOT": 0,
        "norad_id": 36060,
        "name": "COSMOS 2251 DEB",
        "group": "cosmos-2251-debris",
        "longitude_deg": NaN,
        "latitude_deg": NaN,
        "alt_km": NaN,
        "orbit_class": "HEO",
        "timestamp": "2025-11-30T04:57:05.907378+00:00"
      },
      "geometry": {
        "type": "Point",
        "coordinates": [
          NaN,
          NaN
        ]
      }
    },
    {
      "type": "Feature",
      "properties": {
        "OBJECT_NAME": "COSMOS 2251 DEB",
        "OBJECT_ID": "1993-036AXY",
        "EPOCH": "2025-11-28T10:36:03.588480",
        "MEAN_MOTION": 14.33673526,
        "ECCENTRICITY": 0.00370864,
        "INCLINATION": 74.0243,
        "RA_OF_ASC_NODE": 25.9304,
        "ARG_OF_PERICENTER": 118.4423,
        "MEAN_ANOMALY": 242.0473,
        "EPHEMERIS_TYPE": 0,
        "CLASSIFICATION_TYPE": "U",
        "NORAD_CAT_ID": 36061,
        "ELEMENT_SET_NO": 999,
        "REV_AT_EPOCH": 64899,
        "BSTAR": 0.00028971218,
        "MEAN_MOTION_DOT": 7.84e-06,
        "MEAN_MOTION_DDOT": 0,
        "norad_id": 36061,
        "name": "COSMOS 2251 DEB",
        "group": "cosmos-2251-debris",
        "longitude_deg": NaN,
        "latitude_deg": NaN,
        "alt_km": NaN,
        "orbit_class": "HEO",
        "timestamp": "2025-11-30T04:57:05.907383+00:00"
      },
      "geometry": {
        "type": "Point",
        "coordinates": [
          NaN,
          NaN
        ]
      }
    },
    {
      "type": "Feature",
      "properties": {
        "OBJECT_NAME": "COSMOS 2251 DEB",
        "OBJECT_ID": "1993-036AYL",
        "EPOCH": "2025-11-28T07:06:13.180896",
        "MEAN_MOTION": 14.34923918,
        "ECCENTRICITY": 0.00233238,
        "INCLINATION": 74.0324,
        "RA_OF_ASC_NODE": 349.0375,
        "ARG_OF_PERICENTER": 61.5964,
        "MEAN_ANOMALY": 298.7535,
        "EPHEMERIS_TYPE": 0,
        "CLASSIFICATION_TYPE": "U",
        "NORAD_CAT_ID": 36073,
        "ELEMENT_SET_NO": 999,
        "REV_AT_EPOCH": 70000,
        "BSTAR": 0.00021987559,
        "MEAN_MOTION_DOT": 6.01e-06,
        "MEAN_MOTION_DDOT": 0,
        "norad_id": 36073,
        "name": "COSMOS 2251 DEB",
        "group": "cosmos-2251-debris",
        "longitude_deg": NaN,
        "latitude_deg": NaN,
        "alt_km": NaN,
        "orbit_class": "HEO",
        "timestamp": "2025-11-30T04:57:05.907393+00:00"
      },
      "geometry": {
        "type": "Point",
        "coordinates": [
          NaN,
          NaN
        ]
      }
    },
    {
      "type": "Feature",
      "properties": {
        "OBJECT_NAME": "COSMOS 2251 DEB",
        "OBJECT_ID": "1993-036AYM",
        "EPOCH": "2025-11-24T03:06:42.284448",
        "MEAN_MOTION": 14.43570153,
        "ECCENTRICITY": 0.00416404,
        "INCLINATION": 73.9951,
        "RA_OF_ASC_NODE": 15.1719,
        "ARG_OF_PERICENTER": 112.8285,
        "MEAN_ANOMALY": 247.7278,
        "EPHEMERIS_TYPE": 0,
        "CLASSIFICATION_TYPE": "U",
        "NORAD_CAT_ID": 36074,
        "ELEMENT_SET_NO": 999,
        "REV_AT_EPOCH": 85641,
        "BSTAR": 0.00077026001,
        "MEAN_MOTION_DOT": 2.611e-05,
        "MEAN_MOTION_DDOT": 0,
        "norad_id": 36074,
        "name": "COSMOS 2251 DEB",
        "group": "cosmos-2251-debris",
        "longitude_deg": NaN,
        "latitude_deg": NaN,
        "alt_km": NaN,
        "orbit_class": "HEO",
        "timestamp": "2025-11-30T04:57:05.907398+00:00"
      },
      "geometry": {
        "type": "Point",
        "coordinates": [
          NaN,
          NaN
        ]
      }
    }
  ]
}